{
  "type": "FeatureCollection",
  "features": [
    {
      "type": "Feature",
      "properties": {
        "norad_id": 34554,
        "name": "COSMOS 2251 DEB",
        "group": "cosmos-2251-debris",
        "lat": 56.80020372014752,
        "lon": -30.79157100685728,
        "alt_km": 750.0116409814973,
        "timestamp": "2025-12-10T09:57:45.092427+00:00",
        "meta_object_name": "COSMOS 2251 DEB",
        "meta_object_id": "1993-036UQ",
        "meta_epoch": "2025-12-09T16:08:21.908256",
        "meta_mean_motion": 14.37929055,
        "meta_eccentricity": 0.0022854,
        "meta_inclination": 74.0384,
        "meta_ra_of_asc_node": 304.639,
        "meta_arg_of_pericenter": 7.6898,
        "meta_mean_anomaly": 169.941,
        "meta_ephemeris_type": 0,
        "meta_classification_type": "U",
        "meta_norad_cat_id": 34554,
        "meta_element_set_no": 999,
        "meta_rev_at_epoch": 87711,
        "meta_bstar": 0.00062978,
        "meta_mean_motion_dot": 1.882e-05,
        "meta_mean_motion_ddot": 0,
        "tle_line1": "1 34554U 93036UQ  25343.67247579  .00001882  00000+0  62978-3 0  9999",
        "tle_line2": "2 34554  74.0384 304.6390 0022854   7.6898 169.9410 14.37929055877112"
      },
      "geometry": {
        "type": "Point",
        "coordinates": [
          -30.79157100685728,
          56.80020372014752
        ]
      }
    },
    {
      "type": "Feature",
      "properties": {
        "norad_id": 34556,
        "name": "COSMOS 2251 DEB",
        "group": "cosmos-2251-debris",
        "lat": -61.51610861752425,
        "lon": -18.687327714861077,
        "alt_km": 640.3434701616061,
        "timestamp": "2025-12-10T09:57:45.092437+00:00",
        "meta_object_name": "COSMOS 2251 DEB",
        "meta_object_id": "1993-036US",
        "meta_epoch": "2025-12-09T16:40:05.568960",
        "meta_mean_motion": 14.77638766,
        "meta_eccentricity": 0.0008183,
        "meta_inclination": 74.0161,
        "meta_ra_of_asc_node": 130.8394,
        "meta_arg_of_pericenter": 190.7064,
        "meta_mean_anomaly": 183.6129,
        "meta_ephemeris_type": 0,
        "meta_classification_type": "U",
        "meta_norad_cat_id": 34556,
        "meta_element_set_no": 999,
        "meta_rev_at_epoch": 88284,
        "meta_bstar": 0.0037578,
        "meta_mean_motion_dot": 0.0002698,
        "meta_mean_motion_ddot": 0,
        "tle_line1": "1 34556U 93036US  25343.69450890  .00026980  00000+0  37578-2 0  9998",
        "tle_line2": "2 34556  74.0161 130.8394 0008183 190.7064 183.6129 14.77638766882844"
      },
      "geometry": {
        "type": "Point",
        "coordinates": [
          -18.687327714861077,
          -61.51610861752425
        ]
      }
    },
    {
      "type": "Feature",
      "properties": {
        "norad_id": 34560,
        "name": "COSMOS 2251 DEB",
        "group": "cosmos-2251-debris",
        "lat": -6.470935639861484,
        "lon": -31.477581288356742,
        "alt_km": 650.226809239347,
        "timestamp": "2025-12-10T09:57:45.092447+00:00",
        "meta_object_name": "COSMOS 2251 DEB",
        "meta_object_id": "1993-036UW",
        "meta_epoch": "2025-12-10T05:00:42.257088",
        "meta_mean_motion": 14.72020957,
        "meta_eccentricity": 0.0014855,
        "meta_inclination": 74.0169,
        "meta_ra_of_asc_node": 147.061,
        "meta_arg_of_pericenter": 228.6066,
        "meta_mean_anomaly": 305.4222,
        "meta_ephemeris_type": 0,
        "meta_classification_type": "U",
        "meta_norad_cat_id": 34560,
        "meta_element_set_no": 999,
        "meta_rev_at_epoch": 88214,
        "meta_bstar": 0.0032412,
        "meta_mean_motion_dot": 0.00020423,
        "meta_mean_motion_ddot": 0,
        "tle_line1": "1 34560U 93036UW  25344.20882242  .00020423  00000+0  32412-2 0  9999",
        "tle_line2": "2 34560  74.0169 147.0610 0014855 228.6066 305.4222 14.72020957882147"
      },
      "geometry": {
        "type": "Point",
        "coordinates": [
          -31.477581288356742,
          -6.470935639861484
        ]
      }
    },
    {
      "type": "Feature",
      "properties": {
        "norad_id": 34563,
        "name": "COSMOS 2251 DEB",
        "group": "cosmos-2251-debris",
        "lat": 13.74877590474516,
        "lon": 24.032690734575986,
        "alt_km": 744.9196222481896,
        "timestamp": "2025-12-10T09:57:45.092458+00:00",
        "meta_object_name": "COSMOS 2251 DEB",
        "meta_object_id": "1993-036UZ",
        "meta_epoch": "2025-12-10T01:36:08.820000",
        "meta_mean_motion": 14.46496616,
        "meta_eccentricity": 0.0013876,
        "meta_inclination": 74.0379,
        "meta_ra_of_asc_node": 208.6985,
        "meta_arg_of_pericenter": 302.6699,
        "meta_mean_anomaly": 209.8307,
        "meta_ephemeris_type": 0,
        "meta_classification_type": "U",
        "meta_norad_cat_id": 34563,
        "meta_element_set_no": 999,
        "meta_rev_at_epoch": 88158,
        "meta_bstar": 0.00061397,
        "meta_mean_motion_dot": 2.186e-05,
        "meta_mean_motion_ddot": 0,
        "tle_line1": "1 34563U 93036UZ  25344.06676875  .00002186  00000+0  61397-3 0  9990",
        "tle_line2": "2 34563  74.0379 208.6985 0013876 302.6699 209.8307 14.46496616881587"
      },
      "geometry": {
        "type": "Point",
        "coordinates": [
          24.032690734575986,
          13.74877590474516
        ]
      }
    },
    {
      "type": "Feature",
      "properties": {
        "norad_id": 34564,
        "name": "COSMOS 2251 DEB",
        "group": "cosmos-2251-debris",
        "lat": -6.641880101111802,
        "lon": -119.59816118862992,
        "alt_km": 746.2622137520821,
        "timestamp": "2025-12-10T09:57:45.092468+00:00",
        "meta_object_name": "COSMOS 2251 DEB",
        "meta_object_id": "1993-036VA",
        "meta_epoch": "2025-12-10T04:02:00.639744",
        "meta_mean_motion": 14.40682675,
        "meta_eccentricity": 0.0018931,
        "meta_inclination": 74.0327,
        "meta_ra_of_asc_node": 242.7693,
        "meta_arg_of_pericenter": 347.1649,
        "meta_mean_anomaly": 165.2593,
        "meta_ephemeris_type": 0,
        "meta_classification_type": "U",
        "meta_norad_cat_id": 34564,
        "meta_element_set_no": 999,
        "meta_rev_at_epoch": 87969,
        "meta_bstar": 0.00038173,
        "meta_mean_motion_dot": 1.195e-05,
        "meta_mean_motion_ddot": 0,
        "tle_line1": "1 34564U 93036VA  25344.16806296  .00001195  00000+0  38173-3 0  9999",
        "tle_line2": "2 34564  74.0327 242.7693 0018931 347.1649 165.2593 14.40682675879699"
      },
      "geometry": {
        "type": "Point",
        "coordinates": [
          -119.59816118862992,
          -6.641880101111802
        ]
      }
    },
    {
      "type": "Feature",
      "properties": {
        "norad_id": 34567,
        "name": "COSMOS 2251 DEB",
        "group": "cosmos-2251-debris",
        "lat": 1.9202715998065811,
        "lon": -19.58526672042539,
        "alt_km": 785.3191073876087,
        "timestamp": "2025-12-10T09:57:45.092478+00:00",
        "meta_object_name": "COSMOS 2251 DEB",
        "meta_object_id": "1993-036VD",
        "meta_epoch": "2025-12-09T05:01:15.178080",
        "meta_mean_motion": 14.2401118,
        "meta_eccentricity": 0.0074562,
        "meta_inclination": 74.0396,
        "meta_ra_of_asc_node": 163.1343,
        "meta_arg_of_pericenter": 238.1727,
        "meta_mean_anomaly": 240.9079,
        "meta_ephemeris_type": 0,
        "meta_classification_type": "U",
        "meta_norad_cat_id": 34567,
        "meta_element_set_no": 999,
        "meta_rev_at_epoch": 87074,
        "meta_bstar": 0.00037325,
        "meta_mean_motion_dot": 8.56e-06,
        "meta_mean_motion_ddot": 0,
        "tle_line1": "1 34567U 93036VD  25343.20920345  .00000856  00000+0  37325-3 0  9999",
        "tle_line2": "2 34567  74.0396 163.1343 0074562 238.1727 240.9079 14.24011180870740"
      },
      "geometry": {
        "type": "Point",
        "coordinates": [
          -19.58526672042539,
          1.9202715998065811
        ]
      }
    },
    {
      "type": "Feature",
      "properties": {
        "norad_id": 34569,
        "name": "COSMOS 2251 DEB",
        "group": "cosmos-2251-debris",
        "lat": -21.923503280809122,
        "lon": -164.29563469485691,
        "alt_km": 746.766745446962,
        "timestamp": "2025-12-10T09:57:45.092488+00:00",
        "meta_object_name": "COSMOS 2251 DEB",
        "meta_object_id": "1993-036VF",
        "meta_epoch": "2025-12-09T22:32:51.153216",
        "meta_mean_motion": 14.24741218,
        "meta_eccentricity": 0.015719,
        "meta_inclination": 73.9904,
        "meta_ra_of_asc_node": 203.1997,
        "meta_arg_of_pericenter": 32.2311,
        "meta_mean_anomaly": 27.9249,
        "meta_ephemeris_type": 0,
        "meta_classification_type": "U",
        "meta_norad_cat_id": 34569,
        "meta_element_set_no": 999,
        "meta_rev_at_epoch": 86928,
        "meta_bstar": 0.00077344,
        "meta_mean_motion_dot": 2.023e-05,
        "meta_mean_motion_ddot": 0,
        "tle_line1": "1 34569U 93036VF  25343.93948094  .00002023  00000+0  77344-3 0  9995",
        "tle_line2": "2 34569  73.9904 203.1997 0157190  32.2311  27.9249 14.24741218869287"
      },
      "geometry": {
        "type": "Point",
        "coordinates": [
          -164.29563469485691,
          -21.923503280809122
        ]
      }
    }
  ]
}